     2.11           N: GPS NAV DATA                         RINEX VERSION / TYPE
teqc  2019Feb25                         20221121 12:28:40UTCPGM / RUN BY / DATE
OSX ker:10.11.6|Core i5|gcc 4.3 -m64|OSX ker:10.10+|=+      COMMENT
    1.2107D-08  0.0000D+00 -1.1921D-07  0.0000D+00          ION ALPHA
    9.4208D+04  0.0000D+00 -1.9661D+05  0.0000D+00          ION BETA
   -2.793967723846D-09-7.993605777301D-15    61440     1555 DELTA-UTC: A0,A1,T,W
                                                            END OF HEADER
 3 09 10 24  3 59 44.0 4.648375324905D-04 5.229594535194D-12 0.000000000000D+00
    7.000000000000D+00-1.175000000000D+01 5.423083036033D-09 1.062018016330D+00
   -5.625188350678D-07 1.260256802198D-02 7.571652531624D-06 5.153660354614D+03
    5.327840000000D+05-1.452863216400D-07 2.088730598253D+00 6.146728992462D-08
    9.263686287546D-01 2.184687500000D+02 9.578169538350D-01-8.543570159705D-09
    1.314340461842D-10 1.000000000000D+00 1.554000000000D+03 0.000000000000D+00
    2.000000000000D+00 0.000000000000D+00-4.656612873077D-09 7.000000000000D+00
    5.269080000000D+05 4.000000000000D+00
18 09 10 24  4  0  0.0 2.241088077426D-05 2.728484105319D-12 0.000000000000D+00
    4.700000000000D+01 7.653125000000D+01 4.904490005981D-09-2.532926745789D+00
    3.829598426819D-06 1.092830265407D-02 7.640570402145D-06 5.153641857147D+03
    5.328000000000D+05 1.657754182816D-07-1.956989580654D+00-1.955777406693D-07
    9.401680438756D-01 2.210937500000D+02-2.364452948019D+00-8.071407635097D-09
   -1.785788670980D-12 1.000000000000D+00 1.554000000000D+03 0.000000000000D+00
    2.000000000000D+00 0.000000000000D+00-1.071020960808D-08 4.700000000000D+01
    5.272680000000D+05 4.000000000000D+00
28 09 10 24  4  0  0.0-2.578040584922D-05 1.136868377216D-13 0.000000000000D+00
    1.220000000000D+02-5.700000000000D+01 4.051597336720D-09 2.973933870889D+00
   -2.965331077576D-06 1.521770376712D-02 8.415430784225D-06 5.153657413483D+03
    5.328000000000D+05 1.043081283569D-07 1.189912921358D+00-1.266598701477D-07
    9.677907986800D-01 2.181562500000D+02-2.014192470264D+00-7.489597686092D-09
    2.107230631757D-10 1.000000000000D+00 1.554000000000D+03 0.000000000000D+00
    4.000000000000D+00 0.000000000000D+00-1.024454832077D-08 1.220000000000D+02
    5.299380000000D+05 4.000000000000D+00
19 09 10 24  4  0  0.0 4.830770194530D-06-1.818989403546D-12 0.000000000000D+00
    9.700000000000D+01-7.937500000000D+00 4.669480216880D-09 1.731848117946D+00
   -3.371387720108D-07 5.866448860615D-03 7.176771759987D-06 5.153660634995D+03
    5.328000000000D+05 3.166496753693D-08 2.280628660789D+00 6.519258022308D-08
    9.574323395057D-01 2.384375000000D+02-2.183012469060D-01-7.962831683902D-09
    1.057186893220D-10 1.000000000000D+00 1.554000000000D+03 0.000000000000D+00
    2.000000000000D+00 0.000000000000D+00-1.490116119385D-08 9.700000000000D+01
    5.299680000000D+05 4.000000000000D+00
27 09 10 24  3 59 44.0 9.390944615006D-05 3.183231456205D-12 0.000000000000D+00
    1.100000000000D+01-6.925000000000D+01 4.080169955456D-09 1.988532139603D+00
   -4.002824425697D-06 2.145565778483D-02 4.353001713753D-06 5.153730026245D+03
    5.327840000000D+05 3.110617399216D-07 5.491459168745D-02-2.197921276093D-07
    9.764336894339D-01 2.960312500000D+02-1.531126801486D+00-7.695677698723D-09
   -2.650110387735D-10 1.000000000000D+00 1.554000000000D+03 0.000000000000D+00
    2.000000000000D+00 0.000000000000D+00-4.190951585770D-09 1.100000000000D+01
    5.302680000000D+05 4.000000000000D+00
22 09 10 24  4  0  0.0 1.880340278149D-04-7.958078640513D-13 0.000000000000D+00
    2.800000000000D+01 8.275000000000D+01 4.924847996830D-09 2.722163710599D+00
    4.205852746964D-06 5.327467806637D-03 7.957220077515D-06 5.153666900635D+03
    5.328000000000D+05 3.725290298462D-08-1.951617119338D+00-9.685754776001D-08
    9.378386774539D-01 2.152812500000D+02-1.878315951490D+00-8.100694569301D-09
   -1.017899542459D-10 1.000000000000D+00 1.554000000000D+03 0.000000000000D+00
    2.000000000000D+00 0.000000000000D+00-1.769512891769D-08 2.800000000000D+01
    5.317980000000D+05 4.000000000000D+00
 9 09 10 24  3 59 44.0 8.465582504869D-05 2.046363078989D-12 0.000000000000D+00
    1.000000000000D+00-5.962500000000D+01 4.251605667870D-09-1.253587326064D+00
   -2.833083271980D-06 2.062748244498D-02 5.599111318588D-06 5.153626247406D+03
    5.327840000000D+05-2.160668373108D-07 7.927570480274D-02 4.563480615616D-07
    9.783937846112D-01 2.807500000000D+02 1.518205404926D+00-8.155696860368D-09
   -1.935794919343D-10 1.000000000000D+00 1.554000000000D+03 0.000000000000D+00
    2.000000000000D+00 0.000000000000D+00-5.587935447693D-09 1.000000000000D+00
    5.321580000000D+05 4.000000000000D+00
15 09 10 24  6  0  0.0-3.203577362001D-04-1.136868377216D-13 0.000000000000D+00
    9.000000000000D+00 4.446875000000D+01 4.809128890950D-09-3.111334084673D+00
    2.443790435791D-06 1.878047944047D-03 3.898516297340D-06 5.153678493500D+03
    5.400000000000D+05-8.381903171539D-08-9.514009506284D-01 4.284083843231D-08
    9.553336460067D-01 3.001250000000D+02-4.998104792727D-01-8.271773123981D-09
    1.067901625246D-10 1.000000000000D+00 1.554000000000D+03 0.000000000000D+00
    2.000000000000D+00 0.000000000000D+00-9.778887033463D-09 9.000000000000D+00
    5.328180000000D+05 4.000000000000D+00
18 09 10 24  6  0  0.0 2.243090420961D-05 2.728484105319D-12 0.000000000000D+00
    4.800000000000D+01 7.046875000000D+01 4.873417283106D-09-1.482701726101D+00
    3.708526492119D-06 1.092873769812D-02 7.284805178642D-06 5.153641897202D+03
    5.400000000000D+05 2.458691596985D-07-1.957047826737D+00-2.980232238770D-08
    9.401683057380D-01 2.253437500000D+02-2.364474268587D+00-8.112837932264D-09
    3.142988060926D-11 1.000000000000D+00 1.554000000000D+03 0.000000000000D+00
    2.000000000000D+00 0.000000000000D+00-1.071020960808D-08 4.800000000000D+01
    5.328180000000D+05 4.000000000000D+00
27 09 10 24  6  0  0.0 9.393272921443D-05 3.183231456205D-12 0.000000000000D+00
    6.400000000000D+01-6.115625000000D+01 4.191960326259D-09 3.040974028774D+00
   -3.082677721977D-06 2.145481610205D-02 4.481524229050D-06 5.153732099533D+03
    5.400000000000D+05 4.768371582031D-07 5.485832932104D-02-3.539025783539D-08
    9.764318841930D-01 2.945312500000D+02-1.531091646101D+00-7.738179469092D-09
   -1.267909956396D-10 1.000000000000D+00 1.554000000000D+03 0.000000000000D+00
    2.000000000000D+00 0.000000000000D+00-4.190951585770D-09 6.400000000000D+01
    5.328180000000D+05 4.000000000000D+00
 3 09 10 24  6  0  0.0 4.648752510548D-04 5.229594535194D-12 0.000000000000D+00
    8.000000000000D+00-1.262500000000D+01 5.337722337560D-09 2.114544685994D+00
   -8.400529623032D-07 1.260270737112D-02 7.539987564087D-06 5.153660408020D+03
    5.400000000000D+05-9.313225746155D-08 2.088668861648D+00-2.253800630569D-07
    9.263709065181D-01 2.166875000000D+02 9.578196924176D-01-8.293916903501D-09
    2.367955777720D-10 1.000000000000D+00 1.554000000000D+03 0.000000000000D+00
    2.000000000000D+00 0.000000000000D+00-4.656612873077D-09 8.000000000000D+00
    5.328180000000D+05 4.000000000000D+00
19 09 10 24  6  0  0.0 4.817266017199D-06-1.818989403546D-12 0.000000000000D+00
    1.000000000000D+02-6.750000000000D+00 4.670194532348D-09 2.782013465205D+00
   -3.259629011154D-07 5.866548279300D-03 7.338821887970D-06 5.153660726547D+03
    5.400000000000D+05-2.421438694000D-08 2.280571194441D+00 6.519258022308D-08
    9.574332962541D-01 2.362187500000D+02-2.182767196215D-01-7.937116327040D-09
    1.421487782100D-10 1.000000000000D+00 1.554000000000D+03 0.000000000000D+00
    2.000000000000D+00 0.000000000000D+00-1.490116119385D-08 1.000000000000D+02
    5.328180000000D+05 4.000000000000D+00
22 09 10 24  6  0  0.0 1.880279742181D-04-7.958078640513D-13 0.000000000000D+00
    2.900000000000D+01 7.678125000000D+01 4.940920094869D-09-2.510833296136D+00
    3.855675458908D-06 5.328874918632D-03 7.376074790955D-06 5.153664283752D+03
    5.400000000000D+05 1.024454832077D-07-1.951676074937D+00 1.676380634308D-08
    9.378382298010D-01 2.237500000000D+02-1.878314887949D+00-8.122838348822D-09
   -1.428630936784D-12 1.000000000000D+00 1.554000000000D+03 0.000000000000D+00
    2.000000000000D+00 0.000000000000D+00-1.769512891769D-08 2.900000000000D+01
    5.328180000000D+05 4.000000000000D+00
 9 09 10 24  5 59 44.0 8.467026054859D-05 2.046363078989D-12 0.000000000000D+00
    6.000000000000D+00-5.190625000000D+01 4.300893435189D-09-2.033390606081D-01
   -2.687796950340D-06 2.062818058766D-02 5.533918738365D-06 5.153628320694D+03
    5.399840000000D+05-2.291053533554D-07 7.921469380424D-02 5.774199962616D-08
    9.783920627566D-01 2.831250000000D+02 1.518165186382D+00-8.419636425939D-09
   -7.000291590243D-11 1.000000000000D+00 1.554000000000D+03 0.000000000000D+00
    2.000000000000D+00 0.000000000000D+00-5.587935447693D-09 6.000000000000D+00
    5.328180000000D+05 4.000000000000D+00
 6 09 10 24  6  0  0.0 2.559702843428D-04 3.524291969370D-12 0.000000000000D+00
    2.500000000000D+01-4.718750000000D+00 5.210931341921D-09-1.852575684059D+00
   -8.568167686462D-08 5.775085883215D-03 7.353723049164D-06 5.153694087982D+03
    5.400000000000D+05-1.117587089539D-08 2.157518366854D+00 1.881271600723D-07
    9.338350729734D-01 2.236250000000D+02-1.225587195449D+00-8.297488480843D-09
    2.125088518467D-10 1.000000000000D+00 1.554000000000D+03 0.000000000000D+00
    2.000000000000D+00 0.000000000000D+00-5.122274160385D-09 2.500000000000D+01
    5.328180000000D+05 4.000000000000D+00
